{"type": "FeatureCollection", "metadata": {"generated": "2026-07-25T13:13:03Z", "count": 44}, "features": [{"type": "Feature", "geometry": {"type": "Point", "coordinates": [-99.13, 19.43]}, "properties": {"layer": "air", "name": "Ciudad de Mexico", "us_aqi": 67, "level": 1, "level_label": "Moderada", "color": "#ffd23f", "pm2_5": 19.8, "pm10": 23.3, "ozone": 34.0, "no2": 29.5, "so2": 19.4, "co": 246.0}}, {"type": "Feature", "geometry": {"type": "Point", "coordinates": [-103.35, 20.67]}, "properties": {"layer": "air", "name": "Guadalajara", "us_aqi": 62, "level": 1, "level_label": "Moderada", "color": "#ffd23f", "pm2_5": 14.4, "pm10": 15.7, "ozone": 54.0, "no2": 18.2, "so2": 4.3, "co": 269.0}}, {"type": "Feature", "geometry": {"type": "Point", "coordinates": [-100.32, 25.69]}, "properties": {"layer": "air", "name": "Monterrey", "us_aqi": 64, "level": 1, "level_label": "Moderada", "color": "#ffd23f", "pm2_5": 15.3, "pm10": 22.8, "ozone": 49.0, "no2": 8.0, "so2": 2.7, "co": 197.0}}, {"type": "Feature", "geometry": {"type": "Point", "coordinates": [-86.85, 21.16]}, "properties": {"layer": "air", "name": "Cancun", "us_aqi": 54, "level": 1, "level_label": "Moderada", "color": "#ffd23f", "pm2_5": 9.3, "pm10": 14.0, "ozone": 62.0, "no2": 3.7, "so2": 1.4, "co": 132.0}}, {"type": "Feature", "geometry": {"type": "Point", "coordinates": [-117.04, 32.51]}, "properties": {"layer": "air", "name": "Tijuana", "us_aqi": 51, "level": 1, "level_label": "Moderada", "color": "#ffd23f", "pm2_5": 8.9, "pm10": 17.3, "ozone": 68.0, "no2": 5.0, "so2": 0.6, "co": 153.0}}, {"type": "Feature", "geometry": {"type": "Point", "coordinates": [-89.62, 20.97]}, "properties": {"layer": "air", "name": "Merida", "us_aqi": 51, "level": 1, "level_label": "Moderada", "color": "#ffd23f", "pm2_5": 9.1, "pm10": 10.6, "ozone": 41.0, "no2": 3.7, "so2": 1.8, "co": 145.0}}, {"type": "Feature", "geometry": {"type": "Point", "coordinates": [-99.88, 16.86]}, "properties": {"layer": "air", "name": "Acapulco", "us_aqi": 66, "level": 1, "level_label": "Moderada", "color": "#ffd23f", "pm2_5": 13.9, "pm10": 17.8, "ozone": 51.0, "no2": 4.3, "so2": 0.7, "co": 163.0}}, {"type": "Feature", "geometry": {"type": "Point", "coordinates": [-105.22, 20.65]}, "properties": {"layer": "air", "name": "Puerto Vallarta", "us_aqi": 54, "level": 1, "level_label": "Moderada", "color": "#ffd23f", "pm2_5": 5.4, "pm10": 5.8, "ozone": 56.0, "no2": 3.8, "so2": 1.0, "co": 137.0}}, {"type": "Feature", "geometry": {"type": "Point", "coordinates": [-109.91, 22.89]}, "properties": {"layer": "air", "name": "Los Cabos", "us_aqi": 50, "level": 0, "level_label": "Buena", "color": "#46e0a0", "pm2_5": 9.0, "pm10": 13.9, "ozone": 58.0, "no2": 1.0, "so2": 0.6, "co": 114.0}}, {"type": "Feature", "geometry": {"type": "Point", "coordinates": [-96.72, 17.07]}, "properties": {"layer": "air", "name": "Oaxaca", "us_aqi": 62, "level": 1, "level_label": "Moderada", "color": "#ffd23f", "pm2_5": 12.5, "pm10": 21.7, "ozone": 66.0, "no2": 1.9, "so2": 1.0, "co": 123.0}}, {"type": "Feature", "geometry": {"type": "Point", "coordinates": [-96.13, 19.17]}, "properties": {"layer": "air", "name": "Veracruz", "us_aqi": 69, "level": 1, "level_label": "Moderada", "color": "#ffd23f", "pm2_5": 17.8, "pm10": 26.4, "ozone": 49.0, "no2": 7.8, "so2": 2.2, "co": 221.0}}, {"type": "Feature", "geometry": {"type": "Point", "coordinates": [-93.12, 16.75]}, "properties": {"layer": "air", "name": "Tuxtla Gutierrez", "us_aqi": 64, "level": 1, "level_label": "Moderada", "color": "#ffd23f", "pm2_5": 17.4, "pm10": 19.3, "ozone": 37.0, "no2": 11.6, "so2": 2.6, "co": 160.0}}, {"type": "Feature", "geometry": {"type": "Point", "coordinates": [-106.08, 28.63]}, "properties": {"layer": "air", "name": "Chihuahua", "us_aqi": 54, "level": 1, "level_label": "Moderada", "color": "#ffd23f", "pm2_5": 19.3, "pm10": 21.4, "ozone": 59.0, "no2": 6.9, "so2": 2.1, "co": 127.0}}, {"type": "Feature", "geometry": {"type": "Point", "coordinates": [-110.96, 29.07]}, "properties": {"layer": "air", "name": "Hermosillo", "us_aqi": 27, "level": 0, "level_label": "Buena", "color": "#46e0a0", "pm2_5": 3.7, "pm10": 14.0, "ozone": 61.0, "no2": 2.4, "so2": 2.4, "co": 124.0}}, {"type": "Feature", "geometry": {"type": "Point", "coordinates": [-97.87, 22.25]}, "properties": {"layer": "air", "name": "Tampico", "us_aqi": 71, "level": 1, "level_label": "Moderada", "color": "#ffd23f", "pm2_5": 10.8, "pm10": 15.2, "ozone": 52.0, "no2": 3.0, "so2": 2.5, "co": 117.0}}, {"type": "Feature", "geometry": {"type": "Point", "coordinates": [-106.41, 23.25]}, "properties": {"layer": "air", "name": "Mazatlan", "us_aqi": 47, "level": 0, "level_label": "Buena", "color": "#46e0a0", "pm2_5": 6.4, "pm10": 8.8, "ozone": 57.0, "no2": 2.9, "so2": 2.2, "co": 126.0}}, {"type": "Feature", "geometry": {"type": "Point", "coordinates": [-100.39, 20.59]}, "properties": {"layer": "air", "name": "Queretaro", "us_aqi": 60, "level": 1, "level_label": "Moderada", "color": "#ffd23f", "pm2_5": 12.5, "pm10": 19.3, "ozone": 57.0, "no2": 6.3, "so2": 5.2, "co": 126.0}}, {"type": "Feature", "geometry": {"type": "Point", "coordinates": [-98.21, 19.04]}, "properties": {"layer": "air", "name": "Puebla", "us_aqi": 55, "level": 1, "level_label": "Moderada", "color": "#ffd23f", "pm2_5": 10.8, "pm10": 14.3, "ozone": 54.0, "no2": 14.5, "so2": 5.0, "co": 289.0}}, {"type": "Feature", "geometry": {"type": "Point", "coordinates": [-110.31, 24.14]}, "properties": {"layer": "air", "name": "La Paz", "us_aqi": 38, "level": 0, "level_label": "Buena", "color": "#46e0a0", "pm2_5": 8.8, "pm10": 13.1, "ozone": 50.0, "no2": 1.6, "so2": 0.9, "co": 92.0}}, {"type": "Feature", "geometry": {"type": "Point", "coordinates": [-92.93, 17.99]}, "properties": {"layer": "air", "name": "Villahermosa", "us_aqi": 61, "level": 1, "level_label": "Moderada", "color": "#ffd23f", "pm2_5": 15.1, "pm10": 17.5, "ozone": 41.0, "no2": 3.4, "so2": 1.5, "co": 131.0}}, {"type": "Feature", "geometry": {"type": "Point", "coordinates": [-3.7, 40.42]}, "properties": {"layer": "air", "name": "Madrid", "us_aqi": 38, "level": 0, "level_label": "Buena", "color": "#46e0a0", "pm2_5": 5.5, "pm10": 7.6, "ozone": 96.0, "no2": 3.1, "so2": 0.5, "co": 109.0}}, {"type": "Feature", "geometry": {"type": "Point", "coordinates": [-0.13, 51.51]}, "properties": {"layer": "air", "name": "Londres", "us_aqi": 35, "level": 0, "level_label": "Buena", "color": "#46e0a0", "pm2_5": 5.2, "pm10": 7.7, "ozone": 91.0, "no2": 5.6, "so2": 0.4, "co": 149.0}}, {"type": "Feature", "geometry": {"type": "Point", "coordinates": [2.35, 48.85]}, "properties": {"layer": "air", "name": "Paris", "us_aqi": 42, "level": 0, "level_label": "Buena", "color": "#46e0a0", "pm2_5": 6.3, "pm10": 11.5, "ozone": 104.0, "no2": 5.4, "so2": 0.5, "co": 183.0}}, {"type": "Feature", "geometry": {"type": "Point", "coordinates": [-74.01, 40.71]}, "properties": {"layer": "air", "name": "Nueva York", "us_aqi": 64, "level": 1, "level_label": "Moderada", "color": "#ffd23f", "pm2_5": 16.7, "pm10": 19.6, "ozone": 72.0, "no2": 19.9, "so2": 2.4, "co": 158.0}}, {"type": "Feature", "geometry": {"type": "Point", "coordinates": [-118.24, 34.05]}, "properties": {"layer": "air", "name": "Los Angeles", "us_aqi": 64, "level": 1, "level_label": "Moderada", "color": "#ffd23f", "pm2_5": 28.1, "pm10": 31.7, "ozone": 6.0, "no2": 51.8, "so2": 2.8, "co": 143.0}}, {"type": "Feature", "geometry": {"type": "Point", "coordinates": [-80.19, 25.76]}, "properties": {"layer": "air", "name": "Miami", "us_aqi": 37, "level": 0, "level_label": "Buena", "color": "#46e0a0", "pm2_5": 5.3, "pm10": 8.4, "ozone": 51.0, "no2": 1.1, "so2": 0.5, "co": 150.0}}, {"type": "Feature", "geometry": {"type": "Point", "coordinates": [139.69, 35.68]}, "properties": {"layer": "air", "name": "Tokio", "us_aqi": 100, "level": 1, "level_label": "Moderada", "color": "#ffd23f", "pm2_5": 28.1, "pm10": 28.4, "ozone": 60.0, "no2": 67.2, "so2": 42.5, "co": 205.0}}, {"type": "Feature", "geometry": {"type": "Point", "coordinates": [116.41, 39.9]}, "properties": {"layer": "air", "name": "Pekin", "us_aqi": 147, "level": 2, "level_label": "Danina (sensibles)", "color": "#ff8c2b", "pm2_5": 133.2, "pm10": 136.9, "ozone": 0.0, "no2": 178.7, "so2": 11.9, "co": 924.0}}, {"type": "Feature", "geometry": {"type": "Point", "coordinates": [-46.63, -23.55]}, "properties": {"layer": "air", "name": "Sao Paulo", "us_aqi": 85, "level": 1, "level_label": "Moderada", "color": "#ffd23f", "pm2_5": 47.5, "pm10": 47.6, "ozone": 75.0, "no2": 48.9, "so2": 27.6, "co": 401.0}}, {"type": "Feature", "geometry": {"type": "Point", "coordinates": [-58.38, -34.6]}, "properties": {"layer": "air", "name": "Buenos Aires", "us_aqi": 61, "level": 1, "level_label": "Moderada", "color": "#ffd23f", "pm2_5": 7.2, "pm10": 8.1, "ozone": 26.0, "no2": 12.6, "so2": 7.1, "co": 329.0}}, {"type": "Feature", "geometry": {"type": "Point", "coordinates": [-74.07, 4.71]}, "properties": {"layer": "air", "name": "Bogota", "us_aqi": 60, "level": 1, "level_label": "Moderada", "color": "#ffd23f", "pm2_5": 7.3, "pm10": 7.6, "ozone": 32.0, "no2": 10.4, "so2": 10.4, "co": 1115.0}}, {"type": "Feature", "geometry": {"type": "Point", "coordinates": [-77.04, -12.05]}, "properties": {"layer": "air", "name": "Lima", "us_aqi": 59, "level": 1, "level_label": "Moderada", "color": "#ffd23f", "pm2_5": 17.3, "pm10": 26.6, "ozone": 34.0, "no2": 23.0, "so2": 12.3, "co": 628.0}}, {"type": "Feature", "geometry": {"type": "Point", "coordinates": [-70.67, -33.45]}, "properties": {"layer": "air", "name": "Santiago", "us_aqi": 162, "level": 3, "level_label": "Danina", "color": "#ff4242", "pm2_5": 112.9, "pm10": 116.2, "ozone": 2.0, "no2": 90.9, "so2": 122.8, "co": 2111.0}}, {"type": "Feature", "geometry": {"type": "Point", "coordinates": [120.98, 14.6]}, "properties": {"layer": "air", "name": "Manila", "us_aqi": 50, "level": 0, "level_label": "Buena", "color": "#46e0a0", "pm2_5": 10.0, "pm10": 10.6, "ozone": 43.0, "no2": 18.8, "so2": 6.3, "co": 397.0}}, {"type": "Feature", "geometry": {"type": "Point", "coordinates": [72.88, 19.08]}, "properties": {"layer": "air", "name": "Mumbai", "us_aqi": 66, "level": 1, "level_label": "Moderada", "color": "#ffd23f", "pm2_5": 16.6, "pm10": 36.6, "ozone": 48.0, "no2": 9.7, "so2": 5.9, "co": 189.0}}, {"type": "Feature", "geometry": {"type": "Point", "coordinates": [31.24, 30.04]}, "properties": {"layer": "air", "name": "El Cairo", "us_aqi": 75, "level": 1, "level_label": "Moderada", "color": "#ffd23f", "pm2_5": 29.6, "pm10": 132.0, "ozone": 93.0, "no2": 5.1, "so2": 16.0, "co": 174.0}}, {"type": "Feature", "geometry": {"type": "Point", "coordinates": [151.21, -33.87]}, "properties": {"layer": "air", "name": "Sidney", "us_aqi": 41, "level": 0, "level_label": "Buena", "color": "#46e0a0", "pm2_5": 4.1, "pm10": 4.5, "ozone": 35.0, "no2": 10.6, "so2": 3.2, "co": 85.0}}, {"type": "Feature", "geometry": {"type": "Point", "coordinates": [12.5, 41.9]}, "properties": {"layer": "air", "name": "Roma", "us_aqi": 39, "level": 0, "level_label": "Buena", "color": "#46e0a0", "pm2_5": 5.5, "pm10": 9.3, "ozone": 115.0, "no2": 1.8, "so2": 0.3, "co": 134.0}}, {"type": "Feature", "geometry": {"type": "Point", "coordinates": [13.4, 52.52]}, "properties": {"layer": "air", "name": "Berlin", "us_aqi": 38, "level": 0, "level_label": "Buena", "color": "#46e0a0", "pm2_5": 5.9, "pm10": 10.9, "ozone": 110.0, "no2": 3.0, "so2": 1.2, "co": 141.0}}, {"type": "Feature", "geometry": {"type": "Point", "coordinates": [-79.38, 43.65]}, "properties": {"layer": "air", "name": "Toronto", "us_aqi": 58, "level": 1, "level_label": "Moderada", "color": "#ffd23f", "pm2_5": 14.8, "pm10": 15.0, "ozone": 96.0, "no2": 9.7, "so2": 3.2, "co": 184.0}}, {"type": "Feature", "geometry": {"type": "Point", "coordinates": [-95.37, 29.76]}, "properties": {"layer": "air", "name": "Houston", "us_aqi": 78, "level": 1, "level_label": "Moderada", "color": "#ffd23f", "pm2_5": 25.1, "pm10": 33.5, "ozone": 39.0, "no2": 13.8, "so2": 2.2, "co": 146.0}}, {"type": "Feature", "geometry": {"type": "Point", "coordinates": [-90.07, 29.95]}, "properties": {"layer": "air", "name": "Nueva Orleans", "us_aqi": 60, "level": 1, "level_label": "Moderada", "color": "#ffd23f", "pm2_5": 12.6, "pm10": 17.5, "ozone": 45.0, "no2": 11.5, "so2": 2.8, "co": 119.0}}, {"type": "Feature", "geometry": {"type": "Point", "coordinates": [106.85, -6.21]}, "properties": {"layer": "air", "name": "Yakarta", "us_aqi": 157, "level": 3, "level_label": "Danina", "color": "#ff4242", "pm2_5": 44.6, "pm10": 46.9, "ozone": 60.0, "no2": 63.8, "so2": 41.6, "co": 809.0}}, {"type": "Feature", "geometry": {"type": "Point", "coordinates": [100.5, 13.76]}, "properties": {"layer": "air", "name": "Bangkok", "us_aqi": 48, "level": 0, "level_label": "Buena", "color": "#46e0a0", "pm2_5": 7.4, "pm10": 9.1, "ozone": 28.0, "no2": 15.4, "so2": 4.2, "co": 1751.0}}]}