{"type": "FeatureCollection", "metadata": {"generated": "2026-07-25T13:13:02Z", "count": 44}, "features": [{"type": "Feature", "geometry": {"type": "Point", "coordinates": [-99.13, 19.43]}, "properties": {"layer": "forecast", "name": "Ciudad de Mexico", "level": 1, "level_label": "Vigilancia", "max_rain_mm": 16.6, "max_gust_kmh": 41.0, "days": [{"date": "2026-07-25", "rain": 5.5, "pop": 82, "wind": 15.8, "gust": 41.0, "tmax": 28.5, "code": 80}, {"date": "2026-07-26", "rain": 10.4, "pop": 87, "wind": 10.3, "gust": 31.3, "tmax": 23.9, "code": 95}, {"date": "2026-07-27", "rain": 7.4, "pop": 96, "wind": 8.7, "gust": 27.7, "tmax": 22.2, "code": 80}, {"date": "2026-07-28", "rain": 16.6, "pop": 100, "wind": 13.2, "gust": 36.4, "tmax": 23.1, "code": 95}, {"date": "2026-07-29", "rain": 7.0, "pop": 89, "wind": 9.2, "gust": 30.2, "tmax": 22.6, "code": 80}, {"date": "2026-07-30", "rain": 1.1, "pop": 57, "wind": 6.9, "gust": 27.7, "tmax": 23.2, "code": 51}, {"date": "2026-07-31", "rain": 9.3, "pop": 87, "wind": 3.2, "gust": 19.1, "tmax": 23.3, "code": 80}]}}, {"type": "Feature", "geometry": {"type": "Point", "coordinates": [-103.35, 20.67]}, "properties": {"layer": "forecast", "name": "Guadalajara", "level": 1, "level_label": "Vigilancia", "max_rain_mm": 12.0, "max_gust_kmh": 43.6, "days": [{"date": "2026-07-25", "rain": 7.7, "pop": 73, "wind": 16.4, "gust": 43.6, "tmax": 30.9, "code": 95}, {"date": "2026-07-26", "rain": 2.3, "pop": 63, "wind": 11.9, "gust": 36.0, "tmax": 28.5, "code": 53}, {"date": "2026-07-27", "rain": 5.8, "pop": 96, "wind": 12.4, "gust": 39.2, "tmax": 28.6, "code": 95}, {"date": "2026-07-28", "rain": 3.1, "pop": 84, "wind": 12.3, "gust": 34.9, "tmax": 27.6, "code": 53}, {"date": "2026-07-29", "rain": 12.0, "pop": 93, "wind": 13.2, "gust": 34.2, "tmax": 25.9, "code": 80}, {"date": "2026-07-30", "rain": 3.9, "pop": 84, "wind": 11.4, "gust": 31.3, "tmax": 26.2, "code": 53}, {"date": "2026-07-31", "rain": 0.0, "pop": 65, "wind": 5.0, "gust": 31.7, "tmax": 27.6, "code": 3}]}}, {"type": "Feature", "geometry": {"type": "Point", "coordinates": [-100.32, 25.69]}, "properties": {"layer": "forecast", "name": "Monterrey", "level": 1, "level_label": "Vigilancia", "max_rain_mm": 0.0, "max_gust_kmh": 48.6, "days": [{"date": "2026-07-25", "rain": 0.0, "pop": 1, "wind": 25.4, "gust": 45.7, "tmax": 35.5, "code": 3}, {"date": "2026-07-26", "rain": 0.0, "pop": 2, "wind": 22.7, "gust": 42.1, "tmax": 35.3, "code": 3}, {"date": "2026-07-27", "rain": 0.0, "pop": 0, "wind": 23.4, "gust": 42.8, "tmax": 38.7, "code": 3}, {"date": "2026-07-28", "rain": 0.0, "pop": 0, "wind": 29.7, "gust": 48.6, "tmax": 38.8, "code": 3}, {"date": "2026-07-29", "rain": 0.0, "pop": 3, "wind": 31.1, "gust": 48.6, "tmax": 39.4, "code": 1}, {"date": "2026-07-30", "rain": 0.0, "pop": 2, "wind": 26.8, "gust": 43.6, "tmax": 39.3, "code": 1}, {"date": "2026-07-31", "rain": 0.0, "pop": 2, "wind": 24.9, "gust": 38.9, "tmax": 39.3, "code": 2}]}}, {"type": "Feature", "geometry": {"type": "Point", "coordinates": [-86.85, 21.16]}, "properties": {"layer": "forecast", "name": "Cancun", "level": 1, "level_label": "Vigilancia", "max_rain_mm": 6.0, "max_gust_kmh": 52.2, "days": [{"date": "2026-07-25", "rain": 2.5, "pop": 33, "wind": 13.9, "gust": 35.6, "tmax": 31.9, "code": 95}, {"date": "2026-07-26", "rain": 1.2, "pop": 86, "wind": 12.0, "gust": 30.6, "tmax": 31.6, "code": 53}, {"date": "2026-07-27", "rain": 0.3, "pop": 88, "wind": 12.5, "gust": 31.7, "tmax": 32.2, "code": 51}, {"date": "2026-07-28", "rain": 5.1, "pop": 88, "wind": 12.6, "gust": 31.0, "tmax": 31.5, "code": 96}, {"date": "2026-07-29", "rain": 0.0, "pop": 49, "wind": 15.9, "gust": 39.2, "tmax": 32.1, "code": 2}, {"date": "2026-07-30", "rain": 4.2, "pop": 67, "wind": 14.8, "gust": 35.3, "tmax": 31.4, "code": 55}, {"date": "2026-07-31", "rain": 6.0, "pop": 59, "wind": 14.3, "gust": 52.2, "tmax": 31.6, "code": 53}]}}, {"type": "Feature", "geometry": {"type": "Point", "coordinates": [-117.04, 32.51]}, "properties": {"layer": "forecast", "name": "Tijuana", "level": 0, "level_label": "Tranquilo", "max_rain_mm": 0.0, "max_gust_kmh": 15.5, "days": [{"date": "2026-07-25", "rain": 0.0, "pop": 1, "wind": 12.1, "gust": 14.4, "tmax": 27.5, "code": 3}, {"date": "2026-07-26", "rain": 0.0, "pop": 3, "wind": 12.0, "gust": 14.4, "tmax": 27.7, "code": 45}, {"date": "2026-07-27", "rain": 0.0, "pop": 1, "wind": 14.3, "gust": 11.2, "tmax": 26.5, "code": 3}, {"date": "2026-07-28", "rain": 0.0, "pop": 1, "wind": 14.9, "gust": 11.5, "tmax": 24.9, "code": 3}, {"date": "2026-07-29", "rain": 0.0, "pop": 1, "wind": 17.4, "gust": 15.5, "tmax": 24.1, "code": 2}, {"date": "2026-07-30", "rain": 0.0, "pop": 0, "wind": 12.4, "gust": 7.6, "tmax": 26.4, "code": 3}, {"date": "2026-07-31", "rain": 0.0, "pop": 1, "wind": 13.8, "gust": 10.8, "tmax": 27.5, "code": 2}]}}, {"type": "Feature", "geometry": {"type": "Point", "coordinates": [-89.62, 20.97]}, "properties": {"layer": "forecast", "name": "Merida", "level": 0, "level_label": "Tranquilo", "max_rain_mm": 7.1, "max_gust_kmh": 44.3, "days": [{"date": "2026-07-25", "rain": 5.7, "pop": 100, "wind": 16.2, "gust": 41.0, "tmax": 33.7, "code": 95}, {"date": "2026-07-26", "rain": 7.1, "pop": 96, "wind": 18.4, "gust": 40.0, "tmax": 33.6, "code": 95}, {"date": "2026-07-27", "rain": 0.0, "pop": 43, "wind": 15.1, "gust": 31.7, "tmax": 32.6, "code": 3}, {"date": "2026-07-28", "rain": 1.0, "pop": 34, "wind": 12.7, "gust": 28.8, "tmax": 33.9, "code": 53}, {"date": "2026-07-29", "rain": 0.0, "pop": 57, "wind": 15.3, "gust": 33.8, "tmax": 35.4, "code": 1}, {"date": "2026-07-30", "rain": 1.8, "pop": 82, "wind": 14.0, "gust": 42.5, "tmax": 35.4, "code": 53}, {"date": "2026-07-31", "rain": 4.2, "pop": 69, "wind": 13.4, "gust": 44.3, "tmax": 34.6, "code": 95}]}}, {"type": "Feature", "geometry": {"type": "Point", "coordinates": [-99.88, 16.86]}, "properties": {"layer": "forecast", "name": "Acapulco", "level": 0, "level_label": "Tranquilo", "max_rain_mm": 2.3, "max_gust_kmh": 37.1, "days": [{"date": "2026-07-25", "rain": 0.6, "pop": 87, "wind": 14.6, "gust": 36.4, "tmax": 31.1, "code": 51}, {"date": "2026-07-26", "rain": 0.0, "pop": 63, "wind": 14.7, "gust": 37.1, "tmax": 31.5, "code": 3}, {"date": "2026-07-27", "rain": 2.3, "pop": 63, "wind": 12.9, "gust": 33.1, "tmax": 31.3, "code": 95}, {"date": "2026-07-28", "rain": 1.8, "pop": 75, "wind": 12.2, "gust": 31.7, "tmax": 31.1, "code": 53}, {"date": "2026-07-29", "rain": 0.0, "pop": 29, "wind": 13.0, "gust": 34.9, "tmax": 32.0, "code": 3}, {"date": "2026-07-30", "rain": 0.0, "pop": 67, "wind": 13.4, "gust": 36.7, "tmax": 32.1, "code": 3}, {"date": "2026-07-31", "rain": 0.0, "pop": 35, "wind": 9.4, "gust": 32.0, "tmax": 32.5, "code": 3}]}}, {"type": "Feature", "geometry": {"type": "Point", "coordinates": [-105.22, 20.65]}, "properties": {"layer": "forecast", "name": "Puerto Vallarta", "level": 1, "level_label": "Vigilancia", "max_rain_mm": 17.8, "max_gust_kmh": 39.6, "days": [{"date": "2026-07-25", "rain": 5.7, "pop": 100, "wind": 13.5, "gust": 35.6, "tmax": 31.7, "code": 95}, {"date": "2026-07-26", "rain": 4.2, "pop": 100, "wind": 13.8, "gust": 33.5, "tmax": 32.1, "code": 96}, {"date": "2026-07-27", "rain": 3.0, "pop": 86, "wind": 18.5, "gust": 39.6, "tmax": 32.0, "code": 95}, {"date": "2026-07-28", "rain": 17.8, "pop": 99, "wind": 11.2, "gust": 29.2, "tmax": 31.4, "code": 96}, {"date": "2026-07-29", "rain": 15.8, "pop": 100, "wind": 12.8, "gust": 32.0, "tmax": 29.3, "code": 95}, {"date": "2026-07-30", "rain": 6.7, "pop": 75, "wind": 11.2, "gust": 30.2, "tmax": 30.6, "code": 95}, {"date": "2026-07-31", "rain": 1.8, "pop": 63, "wind": 11.3, "gust": 32.0, "tmax": 31.0, "code": 51}]}}, {"type": "Feature", "geometry": {"type": "Point", "coordinates": [-109.91, 22.89]}, "properties": {"layer": "forecast", "name": "Los Cabos", "level": 1, "level_label": "Vigilancia", "max_rain_mm": 7.5, "max_gust_kmh": 51.1, "days": [{"date": "2026-07-25", "rain": 0.1, "pop": 31, "wind": 21.6, "gust": 45.4, "tmax": 35.4, "code": 51}, {"date": "2026-07-26", "rain": 0.0, "pop": 24, "wind": 20.1, "gust": 42.8, "tmax": 33.5, "code": 3}, {"date": "2026-07-27", "rain": 0.1, "pop": 41, "wind": 17.8, "gust": 39.2, "tmax": 33.5, "code": 51}, {"date": "2026-07-28", "rain": 1.7, "pop": 49, "wind": 19.1, "gust": 41.0, "tmax": 34.1, "code": 53}, {"date": "2026-07-29", "rain": 0.3, "pop": 47, "wind": 25.9, "gust": 51.1, "tmax": 34.6, "code": 51}, {"date": "2026-07-30", "rain": 7.5, "pop": 29, "wind": 22.6, "gust": 42.1, "tmax": 34.7, "code": 61}, {"date": "2026-07-31", "rain": 0.0, "pop": 14, "wind": 18.3, "gust": 47.9, "tmax": 34.8, "code": 2}]}}, {"type": "Feature", "geometry": {"type": "Point", "coordinates": [-96.72, 17.07]}, "properties": {"layer": "forecast", "name": "Oaxaca", "level": 1, "level_label": "Vigilancia", "max_rain_mm": 11.4, "max_gust_kmh": 49.3, "days": [{"date": "2026-07-25", "rain": 0.0, "pop": 4, "wind": 8.9, "gust": 29.5, "tmax": 28.5, "code": 3}, {"date": "2026-07-26", "rain": 3.1, "pop": 67, "wind": 9.8, "gust": 28.8, "tmax": 28.4, "code": 80}, {"date": "2026-07-27", "rain": 2.5, "pop": 99, "wind": 14.2, "gust": 40.0, "tmax": 26.1, "code": 53}, {"date": "2026-07-28", "rain": 7.3, "pop": 94, "wind": 18.4, "gust": 49.3, "tmax": 26.4, "code": 81}, {"date": "2026-07-29", "rain": 11.4, "pop": 90, "wind": 5.7, "gust": 35.3, "tmax": 25.5, "code": 95}, {"date": "2026-07-30", "rain": 3.3, "pop": 94, "wind": 7.2, "gust": 25.6, "tmax": 24.6, "code": 53}, {"date": "2026-07-31", "rain": 3.5, "pop": 86, "wind": 6.8, "gust": 23.8, "tmax": 25.2, "code": 53}]}}, {"type": "Feature", "geometry": {"type": "Point", "coordinates": [-96.13, 19.17]}, "properties": {"layer": "forecast", "name": "Veracruz", "level": 1, "level_label": "Vigilancia", "max_rain_mm": 13.9, "max_gust_kmh": 36.7, "days": [{"date": "2026-07-25", "rain": 4.6, "pop": 78, "wind": 16.9, "gust": 36.7, "tmax": 29.9, "code": 95}, {"date": "2026-07-26", "rain": 3.0, "pop": 76, "wind": 14.1, "gust": 31.3, "tmax": 29.8, "code": 95}, {"date": "2026-07-27", "rain": 10.3, "pop": 76, "wind": 14.5, "gust": 32.8, "tmax": 29.5, "code": 96}, {"date": "2026-07-28", "rain": 0.0, "pop": 49, "wind": 12.4, "gust": 29.2, "tmax": 29.5, "code": 3}, {"date": "2026-07-29", "rain": 0.0, "pop": 15, "wind": 13.9, "gust": 33.1, "tmax": 30.6, "code": 3}, {"date": "2026-07-30", "rain": 0.5, "pop": 45, "wind": 13.9, "gust": 32.8, "tmax": 30.5, "code": 51}, {"date": "2026-07-31", "rain": 13.9, "pop": 55, "wind": 13.0, "gust": 30.2, "tmax": 30.5, "code": 96}]}}, {"type": "Feature", "geometry": {"type": "Point", "coordinates": [-93.12, 16.75]}, "properties": {"layer": "forecast", "name": "Tuxtla Gutierrez", "level": 1, "level_label": "Vigilancia", "max_rain_mm": 5.8, "max_gust_kmh": 49.7, "days": [{"date": "2026-07-25", "rain": 0.5, "pop": 65, "wind": 18.5, "gust": 48.2, "tmax": 35.6, "code": 51}, {"date": "2026-07-26", "rain": 2.5, "pop": 100, "wind": 18.9, "gust": 49.7, "tmax": 36.1, "code": 55}, {"date": "2026-07-27", "rain": 5.8, "pop": 100, "wind": 13.1, "gust": 36.0, "tmax": 34.4, "code": 95}, {"date": "2026-07-28", "rain": 3.1, "pop": 94, "wind": 9.7, "gust": 40.0, "tmax": 34.3, "code": 95}, {"date": "2026-07-29", "rain": 2.4, "pop": 91, "wind": 9.9, "gust": 32.0, "tmax": 33.4, "code": 95}, {"date": "2026-07-30", "rain": 5.6, "pop": 100, "wind": 8.5, "gust": 31.7, "tmax": 35.0, "code": 95}, {"date": "2026-07-31", "rain": 4.7, "pop": 86, "wind": 12.1, "gust": 36.7, "tmax": 32.9, "code": 53}]}}, {"type": "Feature", "geometry": {"type": "Point", "coordinates": [-106.08, 28.63]}, "properties": {"layer": "forecast", "name": "Chihuahua", "level": 0, "level_label": "Tranquilo", "max_rain_mm": 0.9, "max_gust_kmh": 28.1, "days": [{"date": "2026-07-25", "rain": 0.0, "pop": 4, "wind": 15.8, "gust": 21.6, "tmax": 34.4, "code": 3}, {"date": "2026-07-26", "rain": 0.0, "pop": 5, "wind": 16.4, "gust": 20.2, "tmax": 36.1, "code": 3}, {"date": "2026-07-27", "rain": 0.0, "pop": 10, "wind": 20.2, "gust": 25.2, "tmax": 36.2, "code": 1}, {"date": "2026-07-28", "rain": 0.0, "pop": 12, "wind": 18.3, "gust": 25.6, "tmax": 36.2, "code": 3}, {"date": "2026-07-29", "rain": 0.9, "pop": 12, "wind": 16.4, "gust": 21.2, "tmax": 36.3, "code": 53}, {"date": "2026-07-30", "rain": 0.0, "pop": 7, "wind": 17.6, "gust": 28.1, "tmax": 36.6, "code": 3}, {"date": "2026-07-31", "rain": 0.0, "pop": 2, "wind": 21.6, "gust": 26.3, "tmax": 37.3, "code": 3}]}}, {"type": "Feature", "geometry": {"type": "Point", "coordinates": [-110.96, 29.07]}, "properties": {"layer": "forecast", "name": "Hermosillo", "level": 1, "level_label": "Vigilancia", "max_rain_mm": 16.7, "max_gust_kmh": 39.6, "days": [{"date": "2026-07-25", "rain": 1.1, "pop": 34, "wind": 27.2, "gust": 39.6, "tmax": 41.7, "code": 55}, {"date": "2026-07-26", "rain": 1.35, "pop": 22, "wind": 23.0, "gust": 31.0, "tmax": 40.2, "code": 3}, {"date": "2026-07-27", "rain": 16.7, "pop": 42, "wind": 32.2, "gust": 36.7, "tmax": 37.8, "code": 96}, {"date": "2026-07-28", "rain": 2.9, "pop": 25, "wind": 22.5, "gust": 22.7, "tmax": 36.5, "code": 81}, {"date": "2026-07-29", "rain": 7.7, "pop": 25, "wind": 22.6, "gust": 25.9, "tmax": 37.2, "code": 80}, {"date": "2026-07-30", "rain": 0.6, "pop": 27, "wind": 20.5, "gust": 24.8, "tmax": 37.9, "code": 51}, {"date": "2026-07-31", "rain": 0.6, "pop": 16, "wind": 24.4, "gust": 21.6, "tmax": 39.3, "code": 51}]}}, {"type": "Feature", "geometry": {"type": "Point", "coordinates": [-97.87, 22.25]}, "properties": {"layer": "forecast", "name": "Tampico", "level": 0, "level_label": "Tranquilo", "max_rain_mm": 1.6, "max_gust_kmh": 44.3, "days": [{"date": "2026-07-25", "rain": 1.6, "pop": 61, "wind": 12.5, "gust": 28.4, "tmax": 31.6, "code": 53}, {"date": "2026-07-26", "rain": 0.3, "pop": 54, "wind": 14.1, "gust": 32.4, "tmax": 32.1, "code": 51}, {"date": "2026-07-27", "rain": 0.1, "pop": 53, "wind": 16.2, "gust": 37.1, "tmax": 32.5, "code": 51}, {"date": "2026-07-28", "rain": 1.5, "pop": 83, "wind": 19.3, "gust": 42.1, "tmax": 31.6, "code": 51}, {"date": "2026-07-29", "rain": 1.0, "pop": 76, "wind": 19.8, "gust": 44.3, "tmax": 31.9, "code": 51}, {"date": "2026-07-30", "rain": 0.3, "pop": 43, "wind": 15.5, "gust": 37.1, "tmax": 31.8, "code": 51}, {"date": "2026-07-31", "rain": 0.6, "pop": 61, "wind": 14.4, "gust": 36.7, "tmax": 31.7, "code": 51}]}}, {"type": "Feature", "geometry": {"type": "Point", "coordinates": [-106.41, 23.25]}, "properties": {"layer": "forecast", "name": "Mazatlan", "level": 2, "level_label": "Riesgo", "max_rain_mm": 42.3, "max_gust_kmh": 38.5, "days": [{"date": "2026-07-25", "rain": 3.9, "pop": 82, "wind": 14.0, "gust": 38.5, "tmax": 31.2, "code": 96}, {"date": "2026-07-26", "rain": 5.7, "pop": 94, "wind": 12.9, "gust": 33.8, "tmax": 29.9, "code": 95}, {"date": "2026-07-27", "rain": 33.3, "pop": 95, "wind": 15.4, "gust": 31.0, "tmax": 30.4, "code": 96}, {"date": "2026-07-28", "rain": 29.0, "pop": 94, "wind": 15.0, "gust": 33.8, "tmax": 30.3, "code": 96}, {"date": "2026-07-29", "rain": 42.3, "pop": 86, "wind": 14.0, "gust": 31.7, "tmax": 29.9, "code": 96}, {"date": "2026-07-30", "rain": 11.4, "pop": 73, "wind": 13.0, "gust": 33.5, "tmax": 30.1, "code": 95}, {"date": "2026-07-31", "rain": 1.2, "pop": 59, "wind": 11.5, "gust": 26.3, "tmax": 31.2, "code": 51}]}}, {"type": "Feature", "geometry": {"type": "Point", "coordinates": [-100.39, 20.59]}, "properties": {"layer": "forecast", "name": "Queretaro", "level": 1, "level_label": "Vigilancia", "max_rain_mm": 11.0, "max_gust_kmh": 52.2, "days": [{"date": "2026-07-25", "rain": 0.0, "pop": 2, "wind": 22.7, "gust": 52.2, "tmax": 29.3, "code": 0}, {"date": "2026-07-26", "rain": 0.3, "pop": 24, "wind": 19.4, "gust": 49.7, "tmax": 29.6, "code": 51}, {"date": "2026-07-27", "rain": 5.1, "pop": 73, "wind": 17.2, "gust": 46.4, "tmax": 29.8, "code": 80}, {"date": "2026-07-28", "rain": 3.7, "pop": 77, "wind": 16.6, "gust": 39.2, "tmax": 27.5, "code": 53}, {"date": "2026-07-29", "rain": 11.0, "pop": 93, "wind": 13.9, "gust": 33.5, "tmax": 26.5, "code": 96}, {"date": "2026-07-30", "rain": 5.0, "pop": 59, "wind": 13.7, "gust": 34.9, "tmax": 26.1, "code": 80}, {"date": "2026-07-31", "rain": 0.1, "pop": 45, "wind": 11.4, "gust": 32.4, "tmax": 27.6, "code": 51}]}}, {"type": "Feature", "geometry": {"type": "Point", "coordinates": [-98.21, 19.04]}, "properties": {"layer": "forecast", "name": "Puebla", "level": 1, "level_label": "Vigilancia", "max_rain_mm": 20.0, "max_gust_kmh": 38.2, "days": [{"date": "2026-07-25", "rain": 0.3, "pop": 33, "wind": 15.2, "gust": 38.2, "tmax": 27.8, "code": 51}, {"date": "2026-07-26", "rain": 2.2, "pop": 87, "wind": 12.5, "gust": 35.3, "tmax": 25.5, "code": 53}, {"date": "2026-07-27", "rain": 11.6, "pop": 100, "wind": 11.8, "gust": 32.8, "tmax": 25.5, "code": 95}, {"date": "2026-07-28", "rain": 20.0, "pop": 100, "wind": 15.9, "gust": 38.2, "tmax": 23.0, "code": 95}, {"date": "2026-07-29", "rain": 3.7, "pop": 73, "wind": 7.1, "gust": 28.8, "tmax": 22.8, "code": 53}, {"date": "2026-07-30", "rain": 2.2, "pop": 63, "wind": 11.2, "gust": 32.8, "tmax": 23.5, "code": 53}, {"date": "2026-07-31", "rain": 3.1, "pop": 82, "wind": 9.5, "gust": 26.6, "tmax": 22.5, "code": 51}]}}, {"type": "Feature", "geometry": {"type": "Point", "coordinates": [-110.31, 24.14]}, "properties": {"layer": "forecast", "name": "La Paz", "level": 2, "level_label": "Riesgo", "max_rain_mm": 26.6, "max_gust_kmh": 36.4, "days": [{"date": "2026-07-25", "rain": 26.6, "pop": 24, "wind": 29.2, "gust": 32.4, "tmax": 37.9, "code": 82}, {"date": "2026-07-26", "rain": 0.0, "pop": 11, "wind": 22.2, "gust": 27.7, "tmax": 35.5, "code": 3}, {"date": "2026-07-27", "rain": 0.0, "pop": 16, "wind": 31.1, "gust": 33.1, "tmax": 35.7, "code": 3}, {"date": "2026-07-28", "rain": 0.9, "pop": 9, "wind": 31.9, "gust": 36.4, "tmax": 36.1, "code": 53}, {"date": "2026-07-29", "rain": 0.4, "pop": 11, "wind": 28.5, "gust": 33.8, "tmax": 35.8, "code": 51}, {"date": "2026-07-30", "rain": 1.8, "pop": 9, "wind": 24.6, "gust": 33.1, "tmax": 36.6, "code": 53}, {"date": "2026-07-31", "rain": 0.0, "pop": 7, "wind": 29.0, "gust": 35.6, "tmax": 37.0, "code": 3}]}}, {"type": "Feature", "geometry": {"type": "Point", "coordinates": [-92.93, 17.99]}, "properties": {"layer": "forecast", "name": "Villahermosa", "level": 1, "level_label": "Vigilancia", "max_rain_mm": 17.3, "max_gust_kmh": 59.4, "days": [{"date": "2026-07-25", "rain": 17.3, "pop": 92, "wind": 23.6, "gust": 46.4, "tmax": 35.9, "code": 95}, {"date": "2026-07-26", "rain": 4.9, "pop": 91, "wind": 14.2, "gust": 29.9, "tmax": 33.0, "code": 95}, {"date": "2026-07-27", "rain": 8.1, "pop": 78, "wind": 17.9, "gust": 38.2, "tmax": 33.1, "code": 96}, {"date": "2026-07-28", "rain": 0.0, "pop": 12, "wind": 13.0, "gust": 32.8, "tmax": 34.0, "code": 3}, {"date": "2026-07-29", "rain": 0.0, "pop": 26, "wind": 19.3, "gust": 59.4, "tmax": 35.1, "code": 2}, {"date": "2026-07-30", "rain": 4.2, "pop": 80, "wind": 19.9, "gust": 46.1, "tmax": 35.0, "code": 95}, {"date": "2026-07-31", "rain": 2.1, "pop": 69, "wind": 15.3, "gust": 46.4, "tmax": 32.7, "code": 51}]}}, {"type": "Feature", "geometry": {"type": "Point", "coordinates": [-3.7, 40.42]}, "properties": {"layer": "forecast", "name": "Madrid", "level": 0, "level_label": "Tranquilo", "max_rain_mm": 0.0, "max_gust_kmh": 44.3, "days": [{"date": "2026-07-25", "rain": 0.0, "pop": 0, "wind": 15.5, "gust": 44.3, "tmax": 28.2, "code": 3}, {"date": "2026-07-26", "rain": 0.0, "pop": 0, "wind": 10.7, "gust": 28.8, "tmax": 30.5, "code": 1}, {"date": "2026-07-27", "rain": 0.0, "pop": 0, "wind": 11.5, "gust": 29.9, "tmax": 33.8, "code": 0}, {"date": "2026-07-28", "rain": 0.0, "pop": 0, "wind": 9.1, "gust": 28.4, "tmax": 37.3, "code": 1}, {"date": "2026-07-29", "rain": 0.0, "pop": 0, "wind": 10.0, "gust": 31.3, "tmax": 38.0, "code": 0}, {"date": "2026-07-30", "rain": 0.0, "pop": 0, "wind": 8.7, "gust": 24.8, "tmax": 37.3, "code": 1}, {"date": "2026-07-31", "rain": 0.0, "pop": 0, "wind": 10.5, "gust": 27.0, "tmax": 34.6, "code": 3}]}}, {"type": "Feature", "geometry": {"type": "Point", "coordinates": [-0.13, 51.51]}, "properties": {"layer": "forecast", "name": "Londres", "level": 1, "level_label": "Vigilancia", "max_rain_mm": 1.8, "max_gust_kmh": 45.7, "days": [{"date": "2026-07-25", "rain": 0.0, "pop": 0, "wind": 19.8, "gust": 43.6, "tmax": 29.3, "code": 3}, {"date": "2026-07-26", "rain": 1.8, "pop": 65, "wind": 20.5, "gust": 45.7, "tmax": 24.4, "code": 61}, {"date": "2026-07-27", "rain": 0.0, "pop": 0, "wind": 17.3, "gust": 38.2, "tmax": 26.4, "code": 2}, {"date": "2026-07-28", "rain": 0.0, "pop": 6, "wind": 13.3, "gust": 27.4, "tmax": 29.6, "code": 2}, {"date": "2026-07-29", "rain": 0.0, "pop": 2, "wind": 19.1, "gust": 41.0, "tmax": 33.8, "code": 3}, {"date": "2026-07-30", "rain": 0.0, "pop": 6, "wind": 13.7, "gust": 27.7, "tmax": 27.8, "code": 3}, {"date": "2026-07-31", "rain": 0.8, "pop": 9, "wind": 9.0, "gust": 20.9, "tmax": 27.3, "code": 51}]}}, {"type": "Feature", "geometry": {"type": "Point", "coordinates": [2.35, 48.85]}, "properties": {"layer": "forecast", "name": "Paris", "level": 1, "level_label": "Vigilancia", "max_rain_mm": 0.6, "max_gust_kmh": 45.4, "days": [{"date": "2026-07-25", "rain": 0.0, "pop": 0, "wind": 15.3, "gust": 40.0, "tmax": 30.4, "code": 3}, {"date": "2026-07-26", "rain": 0.0, "pop": 8, "wind": 17.4, "gust": 37.8, "tmax": 26.7, "code": 3}, {"date": "2026-07-27", "rain": 0.0, "pop": 0, "wind": 12.6, "gust": 30.6, "tmax": 28.3, "code": 1}, {"date": "2026-07-28", "rain": 0.0, "pop": 0, "wind": 8.8, "gust": 21.6, "tmax": 33.3, "code": 0}, {"date": "2026-07-29", "rain": 0.0, "pop": 3, "wind": 10.5, "gust": 26.6, "tmax": 37.6, "code": 2}, {"date": "2026-07-30", "rain": 0.6, "pop": 4, "wind": 16.3, "gust": 45.4, "tmax": 34.4, "code": 80}, {"date": "2026-07-31", "rain": 0.6, "pop": 19, "wind": 14.4, "gust": 40.0, "tmax": 25.1, "code": 3}]}}, {"type": "Feature", "geometry": {"type": "Point", "coordinates": [-74.01, 40.71]}, "properties": {"layer": "forecast", "name": "Nueva York", "level": 0, "level_label": "Tranquilo", "max_rain_mm": 9.9, "max_gust_kmh": 27.0, "days": [{"date": "2026-07-25", "rain": 0.0, "pop": 0, "wind": 18.8, "gust": 24.1, "tmax": 28.4, "code": 3}, {"date": "2026-07-26", "rain": 0.0, "pop": 1, "wind": 17.4, "gust": 22.0, "tmax": 28.3, "code": 3}, {"date": "2026-07-27", "rain": 0.9, "pop": 53, "wind": 21.9, "gust": 21.2, "tmax": 25.5, "code": 51}, {"date": "2026-07-28", "rain": 0.1, "pop": 79, "wind": 23.7, "gust": 23.0, "tmax": 25.9, "code": 51}, {"date": "2026-07-29", "rain": 9.9, "pop": 62, "wind": 17.8, "gust": 27.0, "tmax": 23.9, "code": 95}, {"date": "2026-07-30", "rain": 8.1, "pop": 14, "wind": 16.0, "gust": 25.9, "tmax": 27.9, "code": 80}, {"date": "2026-07-31", "rain": 0.0, "pop": 12, "wind": 21.1, "gust": 21.6, "tmax": 27.0, "code": 3}]}}, {"type": "Feature", "geometry": {"type": "Point", "coordinates": [-118.24, 34.05]}, "properties": {"layer": "forecast", "name": "Los Angeles", "level": 0, "level_label": "Tranquilo", "max_rain_mm": 0.0, "max_gust_kmh": 18.0, "days": [{"date": "2026-07-25", "rain": 0.0, "pop": 0, "wind": 15.5, "gust": 18.0, "tmax": 34.3, "code": 3}, {"date": "2026-07-26", "rain": 0.0, "pop": 1, "wind": 15.1, "gust": 18.0, "tmax": 33.3, "code": 3}, {"date": "2026-07-27", "rain": 0.0, "pop": 0, "wind": 19.3, "gust": 15.1, "tmax": 32.5, "code": 2}, {"date": "2026-07-28", "rain": 0.0, "pop": 0, "wind": 17.1, "gust": 10.4, "tmax": 33.4, "code": 0}, {"date": "2026-07-29", "rain": 0.0, "pop": 0, "wind": 17.4, "gust": 11.9, "tmax": 32.3, "code": 0}, {"date": "2026-07-30", "rain": 0.0, "pop": 0, "wind": 17.3, "gust": 10.4, "tmax": 32.2, "code": 1}, {"date": "2026-07-31", "rain": 0.0, "pop": 0, "wind": 19.3, "gust": 15.8, "tmax": 30.7, "code": 3}]}}, {"type": "Feature", "geometry": {"type": "Point", "coordinates": [-80.19, 25.76]}, "properties": {"layer": "forecast", "name": "Miami", "level": 1, "level_label": "Vigilancia", "max_rain_mm": 24.8, "max_gust_kmh": 33.5, "days": [{"date": "2026-07-25", "rain": 0.0, "pop": 17, "wind": 14.8, "gust": 19.1, "tmax": 31.9, "code": 3}, {"date": "2026-07-26", "rain": 24.8, "pop": 79, "wind": 23.2, "gust": 31.7, "tmax": 32.1, "code": 65}, {"date": "2026-07-27", "rain": 2.8, "pop": 74, "wind": 19.8, "gust": 20.0, "tmax": 32.5, "code": 95}, {"date": "2026-07-28", "rain": 5.9, "pop": 70, "wind": 25.9, "gust": 25.6, "tmax": 32.4, "code": 95}, {"date": "2026-07-29", "rain": 0.2, "pop": 32, "wind": 28.1, "gust": 27.7, "tmax": 34.8, "code": 51}, {"date": "2026-07-30", "rain": 0.0, "pop": 20, "wind": 30.5, "gust": 32.0, "tmax": 35.4, "code": 3}, {"date": "2026-07-31", "rain": 0.6, "pop": 23, "wind": 32.4, "gust": 33.5, "tmax": 33.6, "code": 51}]}}, {"type": "Feature", "geometry": {"type": "Point", "coordinates": [139.69, 35.68]}, "properties": {"layer": "forecast", "name": "Tokio", "level": 1, "level_label": "Vigilancia", "max_rain_mm": 21.5, "max_gust_kmh": 29.9, "days": [{"date": "2026-07-25", "rain": 2.2, "pop": 91, "wind": 8.3, "gust": 29.9, "tmax": 36.0, "code": 61}, {"date": "2026-07-26", "rain": 4.5, "pop": 100, "wind": 5.1, "gust": 29.9, "tmax": 31.9, "code": 55}, {"date": "2026-07-27", "rain": 13.9, "pop": 75, "wind": 5.8, "gust": 28.1, "tmax": 28.9, "code": 63}, {"date": "2026-07-28", "rain": 2.4, "pop": 76, "wind": 8.5, "gust": 23.8, "tmax": 30.6, "code": 53}, {"date": "2026-07-29", "rain": 4.3, "pop": 51, "wind": 6.8, "gust": 18.0, "tmax": 30.6, "code": 55}, {"date": "2026-07-30", "rain": 14.2, "pop": 37, "wind": 6.0, "gust": 19.4, "tmax": 32.6, "code": 96}, {"date": "2026-07-31", "rain": 21.5, "pop": 47, "wind": 7.9, "gust": 24.5, "tmax": 31.0, "code": 96}]}}, {"type": "Feature", "geometry": {"type": "Point", "coordinates": [116.41, 39.9]}, "properties": {"layer": "forecast", "name": "Pekin", "level": 0, "level_label": "Tranquilo", "max_rain_mm": 2.1, "max_gust_kmh": 38.9, "days": [{"date": "2026-07-25", "rain": 0.9, "pop": 67, "wind": 8.2, "gust": 23.8, "tmax": 30.7, "code": 95}, {"date": "2026-07-26", "rain": 2.1, "pop": 27, "wind": 7.6, "gust": 18.0, "tmax": 32.4, "code": 95}, {"date": "2026-07-27", "rain": 1.5, "pop": 46, "wind": 10.2, "gust": 26.6, "tmax": 33.6, "code": 51}, {"date": "2026-07-28", "rain": 2.1, "pop": 39, "wind": 12.7, "gust": 33.8, "tmax": 34.6, "code": 95}, {"date": "2026-07-29", "rain": 0.5, "pop": 8, "wind": 13.5, "gust": 38.5, "tmax": 36.3, "code": 51}, {"date": "2026-07-30", "rain": 0.6, "pop": 19, "wind": 13.3, "gust": 38.9, "tmax": 35.6, "code": 51}, {"date": "2026-07-31", "rain": 0.0, "pop": 29, "wind": 12.1, "gust": 38.2, "tmax": 36.5, "code": 3}]}}, {"type": "Feature", "geometry": {"type": "Point", "coordinates": [-46.63, -23.55]}, "properties": {"layer": "forecast", "name": "Sao Paulo", "level": 0, "level_label": "Tranquilo", "max_rain_mm": 1.1, "max_gust_kmh": 40.7, "days": [{"date": "2026-07-25", "rain": 1.1, "pop": 67, "wind": 10.2, "gust": 27.4, "tmax": 22.1, "code": 55}, {"date": "2026-07-26", "rain": 0.5, "pop": 12, "wind": 6.0, "gust": 19.8, "tmax": 23.4, "code": 51}, {"date": "2026-07-27", "rain": 0.0, "pop": 0, "wind": 6.4, "gust": 19.1, "tmax": 25.7, "code": 3}, {"date": "2026-07-28", "rain": 0.0, "pop": 0, "wind": 10.6, "gust": 28.4, "tmax": 27.6, "code": 1}, {"date": "2026-07-29", "rain": 0.0, "pop": 8, "wind": 16.0, "gust": 40.7, "tmax": 29.9, "code": 3}, {"date": "2026-07-30", "rain": 0.0, "pop": 35, "wind": 11.6, "gust": 31.7, "tmax": 20.5, "code": 3}, {"date": "2026-07-31", "rain": 0.0, "pop": 6, "wind": 10.8, "gust": 29.9, "tmax": 20.8, "code": 3}]}}, {"type": "Feature", "geometry": {"type": "Point", "coordinates": [-58.38, -34.6]}, "properties": {"layer": "forecast", "name": "Buenos Aires", "level": 0, "level_label": "Tranquilo", "max_rain_mm": 7.0, "max_gust_kmh": 43.9, "days": [{"date": "2026-07-25", "rain": 0.0, "pop": 5, "wind": 6.9, "gust": 22.0, "tmax": 13.3, "code": 3}, {"date": "2026-07-26", "rain": 0.0, "pop": 6, "wind": 11.0, "gust": 24.1, "tmax": 16.3, "code": 3}, {"date": "2026-07-27", "rain": 0.0, "pop": 27, "wind": 13.5, "gust": 34.2, "tmax": 16.9, "code": 3}, {"date": "2026-07-28", "rain": 1.5, "pop": 27, "wind": 18.1, "gust": 42.5, "tmax": 15.1, "code": 51}, {"date": "2026-07-29", "rain": 0.6, "pop": 44, "wind": 17.5, "gust": 43.9, "tmax": 14.7, "code": 51}, {"date": "2026-07-30", "rain": 0.0, "pop": 0, "wind": 17.0, "gust": 37.1, "tmax": 13.3, "code": 3}, {"date": "2026-07-31", "rain": 7.0, "pop": 82, "wind": 19.8, "gust": 41.0, "tmax": 17.2, "code": 95}]}}, {"type": "Feature", "geometry": {"type": "Point", "coordinates": [-74.07, 4.71]}, "properties": {"layer": "forecast", "name": "Bogota", "level": 0, "level_label": "Tranquilo", "max_rain_mm": 2.1, "max_gust_kmh": 40.7, "days": [{"date": "2026-07-25", "rain": 1.2, "pop": 73, "wind": 17.7, "gust": 40.7, "tmax": 20.5, "code": 53}, {"date": "2026-07-26", "rain": 0.9, "pop": 98, "wind": 15.4, "gust": 40.7, "tmax": 19.8, "code": 51}, {"date": "2026-07-27", "rain": 0.5, "pop": 100, "wind": 13.8, "gust": 35.3, "tmax": 19.0, "code": 51}, {"date": "2026-07-28", "rain": 1.5, "pop": 85, "wind": 14.0, "gust": 36.4, "tmax": 20.2, "code": 53}, {"date": "2026-07-29", "rain": 2.1, "pop": 84, "wind": 14.8, "gust": 36.4, "tmax": 20.5, "code": 51}, {"date": "2026-07-30", "rain": 1.8, "pop": 90, "wind": 15.2, "gust": 38.5, "tmax": 20.2, "code": 51}, {"date": "2026-07-31", "rain": 1.2, "pop": 94, "wind": 9.7, "gust": 32.0, "tmax": 18.3, "code": 51}]}}, {"type": "Feature", "geometry": {"type": "Point", "coordinates": [-77.04, -12.05]}, "properties": {"layer": "forecast", "name": "Lima", "level": 1, "level_label": "Vigilancia", "max_rain_mm": 1.0, "max_gust_kmh": 54.7, "days": [{"date": "2026-07-25", "rain": 0.0, "pop": 2, "wind": 14.5, "gust": 40.7, "tmax": 23.7, "code": 1}, {"date": "2026-07-26", "rain": 0.0, "pop": 0, "wind": 15.3, "gust": 41.8, "tmax": 24.4, "code": 3}, {"date": "2026-07-27", "rain": 0.0, "pop": 0, "wind": 16.1, "gust": 42.8, "tmax": 23.2, "code": 3}, {"date": "2026-07-28", "rain": 0.0, "pop": 2, "wind": 17.2, "gust": 42.5, "tmax": 22.7, "code": 3}, {"date": "2026-07-29", "rain": 0.0, "pop": 0, "wind": 11.9, "gust": 36.0, "tmax": 23.0, "code": 3}, {"date": "2026-07-30", "rain": 0.0, "pop": 2, "wind": 13.4, "gust": 33.5, "tmax": 23.3, "code": 1}, {"date": "2026-07-31", "rain": 1.0, "pop": 0, "wind": 19.4, "gust": 54.7, "tmax": 23.1, "code": 51}]}}, {"type": "Feature", "geometry": {"type": "Point", "coordinates": [-70.67, -33.45]}, "properties": {"layer": "forecast", "name": "Santiago", "level": 2, "level_label": "Riesgo", "max_rain_mm": 25.2, "max_gust_kmh": 40.0, "days": [{"date": "2026-07-25", "rain": 3.9, "pop": 96, "wind": 5.9, "gust": 11.2, "tmax": 14.5, "code": 55}, {"date": "2026-07-26", "rain": 0.0, "pop": 20, "wind": 4.4, "gust": 18.4, "tmax": 18.7, "code": 3}, {"date": "2026-07-27", "rain": 2.8, "pop": 98, "wind": 7.6, "gust": 33.5, "tmax": 16.6, "code": 53}, {"date": "2026-07-28", "rain": 20.7, "pop": 86, "wind": 7.4, "gust": 20.2, "tmax": 13.4, "code": 81}, {"date": "2026-07-29", "rain": 0.0, "pop": 17, "wind": 4.6, "gust": 11.9, "tmax": 14.0, "code": 3}, {"date": "2026-07-30", "rain": 0.3, "pop": 18, "wind": 6.3, "gust": 21.2, "tmax": 20.6, "code": 51}, {"date": "2026-07-31", "rain": 25.2, "pop": 99, "wind": 6.4, "gust": 40.0, "tmax": 11.7, "code": 80}]}}, {"type": "Feature", "geometry": {"type": "Point", "coordinates": [120.98, 14.6]}, "properties": {"layer": "forecast", "name": "Manila", "level": 1, "level_label": "Vigilancia", "max_rain_mm": 14.8, "max_gust_kmh": 52.2, "days": [{"date": "2026-07-25", "rain": 14.8, "pop": 100, "wind": 16.7, "gust": 43.6, "tmax": 30.7, "code": 95}, {"date": "2026-07-26", "rain": 12.1, "pop": 94, "wind": 10.2, "gust": 30.2, "tmax": 30.2, "code": 95}, {"date": "2026-07-27", "rain": 8.7, "pop": 94, "wind": 18.7, "gust": 52.2, "tmax": 29.4, "code": 95}, {"date": "2026-07-28", "rain": 6.2, "pop": 100, "wind": 9.3, "gust": 25.9, "tmax": 30.9, "code": 95}, {"date": "2026-07-29", "rain": 7.7, "pop": 93, "wind": 9.0, "gust": 24.1, "tmax": 31.7, "code": 95}, {"date": "2026-07-30", "rain": 9.3, "pop": 94, "wind": 7.8, "gust": 25.6, "tmax": 31.2, "code": 95}, {"date": "2026-07-31", "rain": 10.8, "pop": 96, "wind": 8.1, "gust": 27.7, "tmax": 30.9, "code": 95}]}}, {"type": "Feature", "geometry": {"type": "Point", "coordinates": [72.88, 19.08]}, "properties": {"layer": "forecast", "name": "Mumbai", "level": 3, "level_label": "Severo", "max_rain_mm": 53.5, "max_gust_kmh": 58.3, "days": [{"date": "2026-07-25", "rain": 28.0, "pop": 100, "wind": 24.3, "gust": 54.7, "tmax": 29.6, "code": 95}, {"date": "2026-07-26", "rain": 53.5, "pop": 100, "wind": 17.3, "gust": 42.8, "tmax": 27.9, "code": 95}, {"date": "2026-07-27", "rain": 21.5, "pop": 100, "wind": 18.7, "gust": 46.1, "tmax": 28.7, "code": 95}, {"date": "2026-07-28", "rain": 30.7, "pop": 100, "wind": 20.2, "gust": 50.4, "tmax": 28.6, "code": 95}, {"date": "2026-07-29", "rain": 7.2, "pop": 100, "wind": 23.8, "gust": 58.3, "tmax": 29.1, "code": 53}, {"date": "2026-07-30", "rain": 8.1, "pop": 98, "wind": 21.8, "gust": 52.2, "tmax": 28.0, "code": 55}, {"date": "2026-07-31", "rain": 8.7, "pop": 98, "wind": 21.6, "gust": 54.0, "tmax": 28.0, "code": 53}]}}, {"type": "Feature", "geometry": {"type": "Point", "coordinates": [31.24, 30.04]}, "properties": {"layer": "forecast", "name": "El Cairo", "level": 1, "level_label": "Vigilancia", "max_rain_mm": 0.0, "max_gust_kmh": 50.8, "days": [{"date": "2026-07-25", "rain": 0.0, "pop": 0, "wind": 18.2, "gust": 50.8, "tmax": 39.4, "code": 1}, {"date": "2026-07-26", "rain": 0.0, "pop": 0, "wind": 13.3, "gust": 35.3, "tmax": 33.7, "code": 2}, {"date": "2026-07-27", "rain": 0.0, "pop": 0, "wind": 13.4, "gust": 36.7, "tmax": 35.3, "code": 2}, {"date": "2026-07-28", "rain": 0.0, "pop": 0, "wind": 10.9, "gust": 28.4, "tmax": 36.8, "code": 2}, {"date": "2026-07-29", "rain": 0.0, "pop": 0, "wind": 14.7, "gust": 38.5, "tmax": 40.4, "code": 2}, {"date": "2026-07-30", "rain": 0.0, "pop": 0, "wind": 14.4, "gust": 33.8, "tmax": 38.8, "code": 1}, {"date": "2026-07-31", "rain": 0.0, "pop": 0, "wind": 9.0, "gust": 24.8, "tmax": 38.0, "code": 2}]}}, {"type": "Feature", "geometry": {"type": "Point", "coordinates": [151.21, -33.87]}, "properties": {"layer": "forecast", "name": "Sidney", "level": 0, "level_label": "Tranquilo", "max_rain_mm": 4.6, "max_gust_kmh": 43.6, "days": [{"date": "2026-07-25", "rain": 0.0, "pop": 0, "wind": 17.7, "gust": 35.3, "tmax": 17.9, "code": 0}, {"date": "2026-07-26", "rain": 0.0, "pop": 1, "wind": 16.1, "gust": 35.3, "tmax": 16.8, "code": 1}, {"date": "2026-07-27", "rain": 0.1, "pop": 28, "wind": 11.6, "gust": 22.3, "tmax": 16.7, "code": 51}, {"date": "2026-07-28", "rain": 0.0, "pop": 0, "wind": 11.9, "gust": 23.4, "tmax": 18.4, "code": 2}, {"date": "2026-07-29", "rain": 0.0, "pop": 4, "wind": 18.0, "gust": 43.6, "tmax": 16.7, "code": 3}, {"date": "2026-07-30", "rain": 0.0, "pop": 20, "wind": 15.0, "gust": 37.1, "tmax": 14.6, "code": 0}, {"date": "2026-07-31", "rain": 4.6, "pop": 45, "wind": 16.2, "gust": 39.6, "tmax": 14.5, "code": 51}]}}, {"type": "Feature", "geometry": {"type": "Point", "coordinates": [12.5, 41.9]}, "properties": {"layer": "forecast", "name": "Roma", "level": 1, "level_label": "Vigilancia", "max_rain_mm": 0.4, "max_gust_kmh": 50.0, "days": [{"date": "2026-07-25", "rain": 0.0, "pop": 0, "wind": 16.6, "gust": 38.5, "tmax": 31.8, "code": 3}, {"date": "2026-07-26", "rain": 0.4, "pop": 23, "wind": 22.4, "gust": 50.0, "tmax": 31.9, "code": 80}, {"date": "2026-07-27", "rain": 0.0, "pop": 10, "wind": 14.0, "gust": 33.5, "tmax": 30.6, "code": 3}, {"date": "2026-07-28", "rain": 0.0, "pop": 3, "wind": 15.8, "gust": 36.4, "tmax": 34.9, "code": 2}, {"date": "2026-07-29", "rain": 0.0, "pop": 1, "wind": 15.3, "gust": 39.2, "tmax": 37.6, "code": 1}, {"date": "2026-07-30", "rain": 0.0, "pop": 0, "wind": 15.0, "gust": 34.2, "tmax": 37.1, "code": 2}, {"date": "2026-07-31", "rain": 0.0, "pop": 0, "wind": 17.2, "gust": 39.2, "tmax": 38.1, "code": 1}]}}, {"type": "Feature", "geometry": {"type": "Point", "coordinates": [13.4, 52.52]}, "properties": {"layer": "forecast", "name": "Berlin", "level": 1, "level_label": "Vigilancia", "max_rain_mm": 4.2, "max_gust_kmh": 50.8, "days": [{"date": "2026-07-25", "rain": 0.0, "pop": 0, "wind": 10.9, "gust": 36.7, "tmax": 28.7, "code": 3}, {"date": "2026-07-26", "rain": 0.6, "pop": 65, "wind": 13.7, "gust": 34.6, "tmax": 26.2, "code": 80}, {"date": "2026-07-27", "rain": 4.2, "pop": 65, "wind": 20.1, "gust": 50.8, "tmax": 21.9, "code": 80}, {"date": "2026-07-28", "rain": 0.0, "pop": 2, "wind": 15.2, "gust": 40.0, "tmax": 25.3, "code": 3}, {"date": "2026-07-29", "rain": 0.0, "pop": 0, "wind": 8.0, "gust": 23.8, "tmax": 33.7, "code": 3}, {"date": "2026-07-30", "rain": 0.0, "pop": 0, "wind": 6.6, "gust": 21.2, "tmax": 36.6, "code": 3}, {"date": "2026-07-31", "rain": 0.0, "pop": 10, "wind": 14.6, "gust": 38.2, "tmax": 37.9, "code": 3}]}}, {"type": "Feature", "geometry": {"type": "Point", "coordinates": [-79.38, 43.65]}, "properties": {"layer": "forecast", "name": "Toronto", "level": 1, "level_label": "Vigilancia", "max_rain_mm": 8.6, "max_gust_kmh": 45.7, "days": [{"date": "2026-07-25", "rain": 0.0, "pop": 5, "wind": 13.3, "gust": 24.1, "tmax": 24.7, "code": 3}, {"date": "2026-07-26", "rain": 0.8, "pop": 50, "wind": 19.7, "gust": 28.1, "tmax": 27.3, "code": 51}, {"date": "2026-07-27", "rain": 0.5, "pop": 55, "wind": 11.2, "gust": 15.5, "tmax": 27.7, "code": 51}, {"date": "2026-07-28", "rain": 8.6, "pop": 58, "wind": 15.8, "gust": 32.4, "tmax": 26.7, "code": 95}, {"date": "2026-07-29", "rain": 0.0, "pop": 32, "wind": 23.9, "gust": 45.7, "tmax": 29.2, "code": 1}, {"date": "2026-07-30", "rain": 0.0, "pop": 11, "wind": 18.8, "gust": 40.0, "tmax": 29.4, "code": 3}, {"date": "2026-07-31", "rain": 0.0, "pop": 12, "wind": 14.3, "gust": 25.2, "tmax": 28.3, "code": 3}]}}, {"type": "Feature", "geometry": {"type": "Point", "coordinates": [-95.37, 29.76]}, "properties": {"layer": "forecast", "name": "Houston", "level": 0, "level_label": "Tranquilo", "max_rain_mm": 0.7, "max_gust_kmh": 32.8, "days": [{"date": "2026-07-25", "rain": 0.0, "pop": 1, "wind": 15.5, "gust": 29.2, "tmax": 35.4, "code": 3}, {"date": "2026-07-26", "rain": 0.7, "pop": 20, "wind": 16.7, "gust": 23.5, "tmax": 35.7, "code": 53}, {"date": "2026-07-27", "rain": 0.0, "pop": 4, "wind": 21.9, "gust": 32.8, "tmax": 38.3, "code": 3}, {"date": "2026-07-28", "rain": 0.0, "pop": 4, "wind": 24.9, "gust": 31.7, "tmax": 39.0, "code": 3}, {"date": "2026-07-29", "rain": 0.0, "pop": 5, "wind": 23.4, "gust": 27.4, "tmax": 38.7, "code": 3}, {"date": "2026-07-30", "rain": 0.0, "pop": 3, "wind": 21.1, "gust": 29.5, "tmax": 39.1, "code": 3}, {"date": "2026-07-31", "rain": 0.0, "pop": 5, "wind": 26.2, "gust": 29.2, "tmax": 39.7, "code": 3}]}}, {"type": "Feature", "geometry": {"type": "Point", "coordinates": [-90.07, 29.95]}, "properties": {"layer": "forecast", "name": "Nueva Orleans", "level": 0, "level_label": "Tranquilo", "max_rain_mm": 0.9, "max_gust_kmh": 39.6, "days": [{"date": "2026-07-25", "rain": 0.0, "pop": 6, "wind": 10.4, "gust": 29.5, "tmax": 34.1, "code": 3}, {"date": "2026-07-26", "rain": 0.0, "pop": 11, "wind": 13.4, "gust": 39.6, "tmax": 35.0, "code": 3}, {"date": "2026-07-27", "rain": 0.0, "pop": 7, "wind": 17.9, "gust": 32.6, "tmax": 36.5, "code": 3}, {"date": "2026-07-28", "rain": 0.0, "pop": 10, "wind": 22.4, "gust": 28.1, "tmax": 37.4, "code": 3}, {"date": "2026-07-29", "rain": 0.0, "pop": 11, "wind": 19.8, "gust": 31.7, "tmax": 38.3, "code": 3}, {"date": "2026-07-30", "rain": 0.0, "pop": 25, "wind": 15.8, "gust": 32.4, "tmax": 37.4, "code": 3}, {"date": "2026-07-31", "rain": 0.9, "pop": 24, "wind": 14.9, "gust": 28.1, "tmax": 35.9, "code": 51}]}}, {"type": "Feature", "geometry": {"type": "Point", "coordinates": [106.85, -6.21]}, "properties": {"layer": "forecast", "name": "Yakarta", "level": 0, "level_label": "Tranquilo", "max_rain_mm": 9.3, "max_gust_kmh": 40.3, "days": [{"date": "2026-07-25", "rain": 0.0, "pop": 2, "wind": 15.5, "gust": 40.3, "tmax": 34.2, "code": 3}, {"date": "2026-07-26", "rain": 0.0, "pop": 0, "wind": 14.5, "gust": 36.7, "tmax": 35.3, "code": 3}, {"date": "2026-07-27", "rain": 0.0, "pop": 4, "wind": 15.1, "gust": 38.9, "tmax": 34.7, "code": 3}, {"date": "2026-07-28", "rain": 0.4, "pop": 53, "wind": 14.1, "gust": 36.4, "tmax": 35.4, "code": 51}, {"date": "2026-07-29", "rain": 5.4, "pop": 69, "wind": 11.8, "gust": 32.8, "tmax": 34.4, "code": 80}, {"date": "2026-07-30", "rain": 9.3, "pop": 76, "wind": 11.8, "gust": 33.5, "tmax": 33.6, "code": 80}, {"date": "2026-07-31", "rain": 2.1, "pop": 80, "wind": 10.7, "gust": 34.9, "tmax": 33.1, "code": 53}]}}, {"type": "Feature", "geometry": {"type": "Point", "coordinates": [100.5, 13.76]}, "properties": {"layer": "forecast", "name": "Bangkok", "level": 1, "level_label": "Vigilancia", "max_rain_mm": 20.7, "max_gust_kmh": 43.6, "days": [{"date": "2026-07-25", "rain": 2.7, "pop": 94, "wind": 13.5, "gust": 39.2, "tmax": 35.8, "code": 55}, {"date": "2026-07-26", "rain": 6.0, "pop": 75, "wind": 15.2, "gust": 41.0, "tmax": 34.4, "code": 96}, {"date": "2026-07-27", "rain": 6.3, "pop": 90, "wind": 11.8, "gust": 35.3, "tmax": 34.5, "code": 95}, {"date": "2026-07-28", "rain": 6.7, "pop": 96, "wind": 17.8, "gust": 43.6, "tmax": 32.6, "code": 80}, {"date": "2026-07-29", "rain": 9.2, "pop": 95, "wind": 11.0, "gust": 28.4, "tmax": 28.7, "code": 80}, {"date": "2026-07-30", "rain": 15.4, "pop": 94, "wind": 11.0, "gust": 30.6, "tmax": 29.7, "code": 80}, {"date": "2026-07-31", "rain": 20.7, "pop": 93, "wind": 10.3, "gust": 34.9, "tmax": 28.2, "code": 80}]}}]}