{"type": "FeatureCollection", "metadata": {"generated": "2026-07-29T13:55:44Z", "count": 11}, "features": [{"type": "Feature", "geometry": {"type": "Point", "coordinates": [-79.0359, 43.1726]}, "properties": {"layer": "gdacs", "eventtype": "FL", "type_label": "Inundacion", "alertlevel": "Green", "name": "Flood in United States", "country": "United States", "fromdate": "2026-05-19T01:00:00", "url": "https://www.gdacs.org/report.aspx?eventid=1103888&episodeid=61&eventtype=FL"}}, {"type": "Feature", "geometry": {"type": "Point", "coordinates": [-79.0402, 43.1722]}, "properties": {"layer": "gdacs", "eventtype": "FL", "type_label": "Inundacion", "alertlevel": "Green", "name": "Flood in United States", "country": "United States", "fromdate": "2026-05-19T01:00:00", "url": "https://www.gdacs.org/report.aspx?eventid=1103888&episodeid=61&eventtype=FL"}}, {"type": "Feature", "geometry": {"type": "Point", "coordinates": [-97.6734, 33.0108]}, "properties": {"layer": "gdacs", "eventtype": "FL", "type_label": "Inundacion", "alertlevel": "Green", "name": "Flood in United States", "country": "United States", "fromdate": "2026-05-19T01:00:00", "url": "https://www.gdacs.org/report.aspx?eventid=1103888&episodeid=61&eventtype=FL"}}, {"type": "Feature", "geometry": {"type": "Point", "coordinates": [117.8853, 4.2435]}, "properties": {"layer": "gdacs", "eventtype": "FL", "type_label": "Inundacion", "alertlevel": "Green", "name": "Flood in Malaysia", "country": "Malaysia", "fromdate": "2026-07-24T01:00:00", "url": "https://www.gdacs.org/report.aspx?eventid=1104052&episodeid=1&eventtype=FL"}}, {"type": "Feature", "geometry": {"type": "Point", "coordinates": [110.067, 3.2189]}, "properties": {"layer": "gdacs", "eventtype": "FL", "type_label": "Inundacion", "alertlevel": "Green", "name": "Flood in Malaysia", "country": "Malaysia", "fromdate": "2026-07-24T01:00:00", "url": "https://www.gdacs.org/report.aspx?eventid=1104052&episodeid=1&eventtype=FL"}}, {"type": "Feature", "geometry": {"type": "Point", "coordinates": [110.067, 3.2189]}, "properties": {"layer": "gdacs", "eventtype": "FL", "type_label": "Inundacion", "alertlevel": "Green", "name": "Flood in Malaysia", "country": "Malaysia", "fromdate": "2026-07-24T01:00:00", "url": "https://www.gdacs.org/report.aspx?eventid=1104052&episodeid=1&eventtype=FL"}}, {"type": "Feature", "geometry": {"type": "Point", "coordinates": [130.5868, 32.3529]}, "properties": {"layer": "gdacs", "eventtype": "EQ", "type_label": "Sismo", "alertlevel": "Green", "name": "Earthquake in Japan", "country": "Japan", "fromdate": "2026-07-28T08:08:35", "url": "https://www.gdacs.org/report.aspx?eventid=1554567&episodeid=1721255&eventtype=EQ"}}, {"type": "Feature", "geometry": {"type": "Point", "coordinates": [-173.306, 51.4994]}, "properties": {"layer": "gdacs", "eventtype": "EQ", "type_label": "Sismo", "alertlevel": "Green", "name": "Earthquake in United States", "country": "United States", "fromdate": "2026-07-26T08:35:18", "url": "https://www.gdacs.org/report.aspx?eventid=1554143&episodeid=1720770&eventtype=EQ"}}, {"type": "Feature", "geometry": {"type": "Point", "coordinates": [165.0432, 56.064]}, "properties": {"layer": "gdacs", "eventtype": "EQ", "type_label": "Sismo", "alertlevel": "Green", "name": "Earthquake in Russia", "country": "Russia", "fromdate": "2026-07-28T04:42:18", "url": "https://www.gdacs.org/report.aspx?eventid=1554518&episodeid=1721204&eventtype=EQ"}}, {"type": "Feature", "geometry": {"type": "Point", "coordinates": [-92.6223, 14.296]}, "properties": {"layer": "gdacs", "eventtype": "EQ", "type_label": "Sismo", "alertlevel": "Green", "name": "Earthquake in Mexico", "country": "Mexico", "fromdate": "2026-07-28T05:35:17", "url": "https://www.gdacs.org/report.aspx?eventid=1554532&episodeid=1721217&eventtype=EQ"}}, {"type": "Feature", "geometry": {"type": "Point", "coordinates": [-154.5, 23.3]}, "properties": {"layer": "gdacs", "eventtype": "TC", "type_label": "Ciclon tropical", "alertlevel": "Green", "name": "Tropical Cyclone FAUSTO-26", "country": "", "fromdate": "2026-07-19T03:00:00", "url": "https://www.gdacs.org/report.aspx?eventid=1001289&episodeid=42&eventtype=TC"}}]}