{"type": "FeatureCollection", "metadata": {"generated": "2026-10-07T18:17:46Z", "count": 5, "note": "Ubicacion aproximada a nivel estado, detectada por texto del titular. No es la ubicacion exacta del incidente."}, "features": [{"type": "Feature", "geometry": {"type": "Point", "coordinates": [-100.5369, 20.7903]}, "properties": {"title": "Bloqueo total en carretera estatal 200 de Querétaro por carambola - Al Diálogo", "url": "https://news.google.com/rss/articles/CBMipwFBVV95cUxPUEUxcjFhTC1Vak1hVS1ISllQTDh2RVYwWEFVUzlqVFhhTThXTlpjOEFnVWQ4Y0RhamdONFV3ZEVLcDMyTWNOLUlwQUo2dkJsUFlDU0hvcVdLSmVTVnVrZjNxZ0tSV1RCdy1ham5EMEFTdE5XN0xVLVFWMGNBRTVJbGVJX09DNlZXN0lGM1VSTWQtdldtVUtJc1ZLaWE0dFZ3Z0VmeWlDUQ?oc=5", "date": "Wed, 07 Oct 2026 15:31:13 GMT", "source": "Al Diálogo", "state": "Queretaro", "kind": "BLOQUEO"}}, {"type": "Feature", "geometry": {"type": "Point", "coordinates": [-92.7814, 18.0304]}, "properties": {"title": "Bloquean carretera en González 1ª Sección; exigen construcción de puentes - Tabasco HOY", "url": "https://news.google.com/rss/articles/CBMiogFBVV95cUxOcDBqTkdORmxmb20tanNjckNmNFpHdEVOd1FCbDg5U2w2TU1VamkzT1R4MTNMTlBKRTY2RjVKMXVxR2lxZFVKeDZMTzRfejJ5UVNFOWRuZjg0Y3FPZWtzNmFsU2FlbDdScHBFdENCNG5MVXRIdW9YdllKUDRaTi1ZVkFTbXBFZlB6Z3RTLWwyWFVFc2ZBb05EeFhLaDBBWmdVX3c?oc=5", "date": "Mon, 05 Oct 2026 21:35:34 GMT", "source": "Tabasco HOY", "state": "Tabasco", "kind": "BLOQUEO"}}, {"type": "Feature", "geometry": {"type": "Point", "coordinates": [-92.9517, 16.7029]}, "properties": {"title": "Maestros vuelven a bloquear carretera de acceso a La Concordia por conflicto escolar - El Heraldo de Chiapas - El Sol de México", "url": "https://news.google.com/rss/articles/CBMi0wFBVV95cUxQVGRfVzU0ZkJCa0ZqY0JzVnhJdUxROWZNVkRHb0tIeFRVNC1TVWQ2czdvSnFucFRlZG9aYVFhMlVOTEtlWHZUV2xxU0phNVlCQjgyWmlQY0xFMGhKYUhuRk1rRGZhS3llR1hGelRieDlDb0phRV82ZVhpelFxTXdXUjRsUWh2Y01sYnl1ekJaRXR1YnBOTlA2dHpYWlpmbVhJOEJYN01hOHBSOFU2OXpVMFd0TnF1TzZCbTRzc2hFWXI5d1JMdzVxdFhUNWJOVlMtb3Nz?oc=5", "date": "Tue, 06 Oct 2026 19:34:38 GMT", "source": "El Sol de México", "state": "Chiapas", "kind": "BLOQUEO"}}, {"type": "Feature", "geometry": {"type": "Point", "coordinates": [-100.1429, 20.6138]}, "properties": {"title": "Desprendimientos causan cierre total en carretera 120 de Querétaro - Al Diálogo", "url": "https://news.google.com/rss/articles/CBMirgFBVV95cUxNZW1qa1ZRS3ZGVFhfUFVwemkzaE1BbmZmakxBT01kS2NpYl9iUDB4WG11Q3BGdTJvTDBBREIyUzl2cFdZM2ppb2ZOVy1pTkFwdXZQM0FrSDN4ZUp5Q1NzUzJHU2prLXc2LS1vdGNPN2NFNVN0bkNaWklZcGQtU0Z2ZFB6ZmlEcWZYYkY0WHIwdEhwVk5ua3lZaUNuQUJUeFlXMlRSbjBZUHZRV00zaXc?oc=5", "date": "Mon, 05 Oct 2026 21:40:06 GMT", "source": "Al Diálogo", "state": "Queretaro", "kind": "BLOQUEO"}}, {"type": "Feature", "geometry": {"type": "Point", "coordinates": [-92.9792, 16.7174]}, "properties": {"title": "Maestros bloquean carretera en La Concordia y exigen abrir oficinas escolares - El Heraldo de Chiapas - El Sol de México", "url": "https://news.google.com/rss/articles/CBMiygFBVV95cUxQNXA1Z0tlZ0tSWEQ0bFlVMDRRdlNkLVMyeWdzRHNQQm9WVlkzV2VNdWpna01ic3pGMXBUQi1NcllBZ0FPWHgzZ1Rrbm1XM0FoSk9XcnFhekRUM1FWSFltQ2lwbDNGR1RXYlNnRHg2YXljLVFCZnBNWGU0X3RHb0RHZUFtczcxbllET0Z3dW9MekxnUXB6dHpHSEZpZVlIbm12X3c4THFSTHl6UDN3Nm1WYXdZMkMxUjMxRFJ3dzMxSENsOW5KbTgzalBB?oc=5", "date": "Mon, 05 Oct 2026 17:01:15 GMT", "source": "El Sol de México", "state": "Chiapas", "kind": "BLOQUEO"}}]}