{"type": "FeatureCollection", "metadata": {"generated": "2026-10-10T03:52:28Z", "count": 3}, "features": [{"type": "Feature", "geometry": {"type": "Point", "coordinates": [-86.5, 30.8]}, "properties": {"layer": "storm", "name": "Isaias", "classification": "HU", "class_label": "Huracan", "intensity_kt": "80", "pressure_mb": "982", "movement": "5 20 kt", "basin": "al", "last_update": "2026-10-10T03:00:00.000Z"}}, {"type": "Feature", "geometry": {"type": "Point", "coordinates": [-123.3, 23.8]}, "properties": {"layer": "storm", "name": "Rachel", "classification": "TS", "class_label": "Tormenta tropical", "intensity_kt": "40", "pressure_mb": "995", "movement": "50 9 kt", "basin": "ep", "last_update": "2026-10-10T03:00:00.000Z"}}, {"type": "Feature", "geometry": {"type": "Point", "coordinates": [-104.6, 16.8]}, "properties": {"layer": "storm", "name": "Simon", "classification": "HU", "class_label": "Huracan", "intensity_kt": "105", "pressure_mb": "952", "movement": "360 7 kt", "basin": "ep", "last_update": "2026-10-10T03:00:00.000Z"}}]}