{"type": "FeatureCollection", "metadata": {"generated": "2026-07-25T13:13:23Z", "count": 15}, "features": [{"type": "Feature", "geometry": {"type": "Point", "coordinates": [-98.622, 19.023]}, "properties": {"layer": "volcano", "name": "Popocatepetl", "country": "Mexico", "url": "https://www.gob.mx/cenapred", "note": "Nivel de actividad: consultar fuente oficial (CENAPRED/GVP)."}}, {"type": "Feature", "geometry": {"type": "Point", "coordinates": [-103.617, 19.514]}, "properties": {"layer": "volcano", "name": "Colima (Volcan de Fuego)", "country": "Mexico", "url": "https://volcano.si.edu", "note": "Nivel de actividad: consultar fuente oficial (CENAPRED/GVP)."}}, {"type": "Feature", "geometry": {"type": "Point", "coordinates": [-93.228, 17.36]}, "properties": {"layer": "volcano", "name": "El Chichon", "country": "Mexico", "url": "https://volcano.si.edu", "note": "Nivel de actividad: consultar fuente oficial (CENAPRED/GVP)."}}, {"type": "Feature", "geometry": {"type": "Point", "coordinates": [-90.88, 14.473]}, "properties": {"layer": "volcano", "name": "Fuego", "country": "Guatemala", "url": "https://volcano.si.edu", "note": "Nivel de actividad: consultar fuente oficial (CENAPRED/GVP)."}}, {"type": "Feature", "geometry": {"type": "Point", "coordinates": [-90.601, 14.382]}, "properties": {"layer": "volcano", "name": "Pacaya", "country": "Guatemala", "url": "https://volcano.si.edu", "note": "Nivel de actividad: consultar fuente oficial (CENAPRED/GVP)."}}, {"type": "Feature", "geometry": {"type": "Point", "coordinates": [-155.287, 19.421]}, "properties": {"layer": "volcano", "name": "Kilauea", "country": "EE.UU.", "url": "https://volcanoes.usgs.gov", "note": "Nivel de actividad: consultar fuente oficial (CENAPRED/GVP)."}}, {"type": "Feature", "geometry": {"type": "Point", "coordinates": [-155.608, 19.475]}, "properties": {"layer": "volcano", "name": "Mauna Loa", "country": "EE.UU.", "url": "https://volcanoes.usgs.gov", "note": "Nivel de actividad: consultar fuente oficial (CENAPRED/GVP)."}}, {"type": "Feature", "geometry": {"type": "Point", "coordinates": [14.999, 37.748]}, "properties": {"layer": "volcano", "name": "Etna", "country": "Italia", "url": "https://volcano.si.edu", "note": "Nivel de actividad: consultar fuente oficial (CENAPRED/GVP)."}}, {"type": "Feature", "geometry": {"type": "Point", "coordinates": [15.213, 38.789]}, "properties": {"layer": "volcano", "name": "Stromboli", "country": "Italia", "url": "https://volcano.si.edu", "note": "Nivel de actividad: consultar fuente oficial (CENAPRED/GVP)."}}, {"type": "Feature", "geometry": {"type": "Point", "coordinates": [130.657, 31.585]}, "properties": {"layer": "volcano", "name": "Sakurajima", "country": "Japon", "url": "https://volcano.si.edu", "note": "Nivel de actividad: consultar fuente oficial (CENAPRED/GVP)."}}, {"type": "Feature", "geometry": {"type": "Point", "coordinates": [110.446, -7.54]}, "properties": {"layer": "volcano", "name": "Merapi", "country": "Indonesia", "url": "https://volcano.si.edu", "note": "Nivel de actividad: consultar fuente oficial (CENAPRED/GVP)."}}, {"type": "Feature", "geometry": {"type": "Point", "coordinates": [-22.27, 63.9]}, "properties": {"layer": "volcano", "name": "Reykjanes / Fagradalsfjall", "country": "Islandia", "url": "https://volcano.si.edu", "note": "Nivel de actividad: consultar fuente oficial (CENAPRED/GVP)."}}, {"type": "Feature", "geometry": {"type": "Point", "coordinates": [-71.93, -39.42]}, "properties": {"layer": "volcano", "name": "Villarrica", "country": "Chile", "url": "https://volcano.si.edu", "note": "Nivel de actividad: consultar fuente oficial (CENAPRED/GVP)."}}, {"type": "Feature", "geometry": {"type": "Point", "coordinates": [-78.436, -0.677]}, "properties": {"layer": "volcano", "name": "Cotopaxi", "country": "Ecuador", "url": "https://volcano.si.edu", "note": "Nivel de actividad: consultar fuente oficial (CENAPRED/GVP)."}}, {"type": "Feature", "geometry": {"type": "Point", "coordinates": [29.25, -1.52]}, "properties": {"layer": "volcano", "name": "Nyiragongo", "country": "RD Congo", "url": "https://volcano.si.edu", "note": "Nivel de actividad: consultar fuente oficial (CENAPRED/GVP)."}}]}